IRIDIUM 155             
1 43573U 18061E   20224.49674773  .00000056  00000-0  12978-4 0  9997
2 43573  86.3956 229.1853 0002718  98.4683 261.6821 14.34216764107256
IRIDIUM 154             
1 43574U 18061F   20224.05910795  .00000059  00000-0  14040-4 0  9992
2 43574  86.3959 229.4004 0001976  87.3639 272.7782 14.34218232107233
IRIDIUM 163             
1 43575U 18061G   20224.10984736  .00000058  00000-0  13618-4 0  9994
2 43575  86.3957 229.3594 0002496  75.5150 284.6322 14.34218893107213
IRIDIUM 156             
1 43576U 18061H   20224.08446853  .00000050  00000-0  10812-4 0  9990
2 43576  86.3957 229.3748 0002634  86.9297 273.2200 14.34219361107194
IRIDIUM 164             
1 43577U 18061J   20224.13522096  .00000057  00000-0  13340-4 0  9997
2 43577  86.3958 229.3615 0002101  84.5663 275.5772 14.34217869107256
IRIDIUM 159             
1 43578U 18061K   20224.10350557  .00000054  00000-0  12204-4 0  9991
2 43578  86.3957 229.3564 0002090  87.2569 272.8866 14.34218641107210
IRIDIUM 180             
1 43922U 19002A   20224.10300214  .00000073  00000-0  19027-4 0  9996
2 43922  86.4022 166.2802 0001650  55.1248 305.0103 14.34217419 82824
IRIDIUM 176             
1 43923U 19002B   20224.13789052  .00000119  00000-0  14880-4 0  9994
2 43923  86.6156 166.2933 0002292  82.2530 277.8947 14.72257295 84976
IRIDIUM 168             
1 43924U 19002C   20224.51527312  .00000070  00000-0  17877-4 0  9991
2 43924  86.4023 166.1249 0001962  81.5185 278.6233 14.34216861 82863
IRIDIUM 173             
1 43925U 19002D   20224.08397420  .00000067  00000-0  16913-4 0  9995
2 43925  86.4019 166.2806 0002097  80.7106 279.4327 14.34218898 82790
IRIDIUM 169             
1 43926U 19002E   20224.47275899  .00000087  00000-0  21949-4 0  9991
2 43926  86.4258 197.6594 0005853 147.8242 212.3314 14.38611780 83173
IRIDIUM 172             
1 43927U 19002F   20224.21716983  .00000072  00000-0  18511-4 0  9993
2 43927  86.4020 166.2263 0002006  79.0160 281.1261 14.34218523 82817
IRIDIUM 175             
1 43928U 19002G   20224.13170959  .00000124  00000-0  15769-4 0  9992
2 43928  86.6140 166.1771 0003299  82.7254 277.4338 14.72257439 84968
IRIDIUM 171             
1 43929U 19002H   20224.19814749  .00000068  00000-0  17061-4 0  9995
2 43929  86.4030 166.3032 0001968  82.2134 277.9285 14.34216003 82807
IRIDIUM 170             
1 43930U 19002J   20224.21203225  .00000120  00000-0  15173-4 0  9992
2 43930  86.6156 166.2693 0002526  78.9257 281.2244 14.72249373 84994
IRIDIUM 167             
1 43931U 19002K   20224.40111454  .00000076  00000-0  20055-4 0  9991
2 43931  86.4021 166.1531 0001576  63.4064 296.7293 14.34216475 82834
